NORAD_CAT_ID,OBJECT_NAME,OBJECT_TYPE,EPOCH,MEAN_MOTION,ECCENTRICITY,INCLINATION,RA_OF_ASC_NODE,ARG_OF_PERICENTER,MEAN_ANOMALY,BSTAR,MEAN_MOTION_DOT,MEAN_MOTION_DDOT,TLE_LINE0,TLE_LINE1,TLE_LINE2,SEMIMAJOR_AXIS,PERIOD,APOGEE,PERIGEE,DECAYED
50805.0,STARLINK-3333,PAYLOAD,2023-01-03 10:19:59,15.0884921,0.0002363,53.2138,332.2258,30.2345,329.8783,0.0005921,9.15e-05,0.0,0 STARLINK-3333,1 50805U 22001C   23003.43054600  .00009150  00000-0  59210-3 0  9998,2 50805  53.2138 332.2258 0002363  30.2345 329.8783 15.08849210 55231,6917.852,95.437,541.352,538.0830000000002,0.0
50805.0,STARLINK-3333,PAYLOAD,2023-01-04 02:13:50,15.08846318,0.0002461999999999,53.214,329.251,31.6926,328.4214,0.00024973,3.689e-05,0.0,0 STARLINK-3333,1 50805U 22001C   23004.09294535  .00003689  00000-0  24973-3 0  9993,2 50805  53.2140 329.2510 0002462  31.6926 328.4214 15.08846318 56603,6917.861,95.437,541.429,538.023,0.0
50805.0,STARLINK-3333,PAYLOAD,2023-01-04 08:35:22,15.08856515,0.0002485999999999,53.214,328.0628,31.5031,328.611,0.0004785,7.339e-05,0.0,0 STARLINK-3333,1 50805U 22001C   23004.35790246  .00007339  00000-0  47850-3 0  9997,2 50805  53.2140 328.0628 0002486  31.5031 328.6110 15.08856515 55372,6917.83,95.437,541.415,537.975,0.0
50805.0,STARLINK-3333,PAYLOAD,2023-01-04 21:18:27,15.08863782,0.0002466,53.214,325.6827,27.3899,332.7223,0.00052165,8.029e-05,0.0,0 STARLINK-3333,1 50805U 22001C   23004.88781541  .00008029  00000-0  52165-3 0  9995,2 50805  53.2140 325.6827 0002466  27.3899 332.7223 15.08863782 55453,6917.808000000001,95.436,541.379,537.967,0.0
50805.0,STARLINK-3333,PAYLOAD,2023-01-05 06:50:44,15.08884454,0.0002807,53.2143,323.8989,31.5566,328.5594,0.00085005,0.00013283,0.0,0 STARLINK-3333,1 50805U 22001C   23005.28524242  .00013283  00000-0  85005-3 0  9990,2 50805  53.2143 323.8989 0002807  31.5566 328.5594 15.08884454 56782,6917.745,95.435,541.5509999999998,537.668,0.0
50805.0,STARLINK-3333,PAYLOAD,2023-01-06 08:16:57,15.08819274,0.0001984,53.2144,319.1406,47.0194,313.0964,-0.00026677,-4.529e-05,0.0,0 STARLINK-3333,1 50805U 22001C   23006.34510543 -.00004529  00000-0 -26677-3 0  9992,2 50805  53.2144 319.1406 0001984  47.0194 313.0964 15.08819274 56945,6917.944,95.439,541.181,538.436,0.0
50805.0,STARLINK-3333,PAYLOAD,2023-01-06 21:00:03,15.08817791,0.0001928,53.2145,316.7619,42.8218,317.2924,0.00032083,4.819e-05,0.0,0 STARLINK-3333,1 50805U 22001C   23006.87503721  .00004819  00000-0  32083-3 0  9998,2 50805  53.2145 316.7619 0001928  42.8218 317.2924 15.08817791 55755,6917.948,95.439,541.1469999999998,538.479,0.0
50805.0,STARLINK-3333,PAYLOAD,2023-01-07 03:21:35,15.08832001,0.0001963,53.2146,315.5723,43.0487,317.0658,0.00098052,0.00015348,0.0,0 STARLINK-3333,1 50805U 22001C   23007.13999950  .00015348  00000-0  98052-3 0  9998,2 50805  53.2146 315.5723 0001963  43.0487 317.0658 15.08832001 57068,6917.905,95.438,541.128,538.4119999999998,0.0
50805.0,STARLINK-3333,PAYLOAD,2023-01-07 20:50:50,15.08842422,0.0001983,53.2147,312.3017,46.7962,313.3196,0.00055276,8.521e-05,0.0,0 STARLINK-3333,1 50805U 22001C   23007.86864102  .00008521  00000-0  55276-3 0  9994,2 50805  53.2147 312.3017 0001983  46.7962 313.3196 15.08842422 55905,6917.873000000001,95.437,541.11,538.366,0.0
50805.0,STARLINK-3333,PAYLOAD,2023-01-08 03:12:22,15.08854169,0.0001972,53.2148,311.1127,48.9137,311.2025,0.0007772,0.00012108,0.0,0 STARLINK-3333,1 50805U 22001C   23008.13359813  .00012108  00000-0  77720-3 0  9997,2 50805  53.2148 311.1127 0001972  48.9137 311.2025 15.08854169 57216,6917.837,95.437,541.066,538.3380000000002,0.0
50805.0,STARLINK-3333,PAYLOAD,2023-01-08 12:44:41,15.08850593,0.0002087,53.2145,309.3275,51.0225,309.0952,0.00049009,7.523e-05,0.0,0 STARLINK-3333,1 50805U 22001C   23008.53103799  .00007523  00000-0  49009-3 0  9995,2 50805  53.2145 309.3275 0002087  51.0225 309.0952 15.08850593 56004,6917.848000000001,95.437,541.1569999999998,538.269,0.0
50805.0,STARLINK-3333,PAYLOAD,2023-01-09 03:03:09,15.08847608,0.0002204,53.2148,306.6525,61.9666,298.1549,0.00032294,4.856e-05,0.0,0 STARLINK-3333,1 50805U 22001C   23009.12719730  .00004856  00000-0  32294-3 0  9993,2 50805  53.2148 306.6525 0002204  61.9666 298.1549 15.08847608 57368,6917.857,95.437,541.247,538.197,0.0
50805.0,STARLINK-3333,PAYLOAD,2023-01-09 12:35:29,15.08831986,0.0002033,53.2123,304.8681,69.3599,290.761,0.00016732,2.375e-05,0.0,0 STARLINK-3333,1 50805U 22001C   23009.52464440  .00002375  00000-0  16732-3 0  9995,2 50805  53.2123 304.8681 0002033  69.3599 290.7610 15.08831986 57427,6917.905,95.438,541.1759999999998,538.363,0.0
50805.0,STARLINK-3333,PAYLOAD,2023-01-10 04:29:20,15.08839078,0.0001645,53.2154,301.8924,50.1496,309.9641,-5.3381e-06,-3.73e-06,0.0,0 STARLINK-3333,1 50805U 22001C   23010.18703924 -.00000373  00000-0 -53381-5 0  9993,2 50805  53.2154 301.8924 0001645  50.1496 309.9641 15.08839078 57528,6917.883000000002,95.438,540.886,538.61,0.0
50805.0,STARLINK-3333,PAYLOAD,2023-01-10 12:26:15,15.0884119,0.0001776,53.2138,300.4056,70.5405,289.5779,0.00015158,2.125e-05,0.0,0 STARLINK-3333,1 50805U 22001C   23010.51824021  .00002125  00000-0  15158-3 0  9995,2 50805  53.2138 300.4056 0001776  70.5405 289.5779 15.08841190 56300,6917.877,95.437,540.97,538.513,0.0
50805.0,STARLINK-3333,PAYLOAD,2023-01-11 02:44:43,15.08851111,0.0001876,53.2159,297.7317,66.9116,293.2074,0.00036541,5.534e-05,0.0,0 STARLINK-3333,1 50805U 22001C   23011.11439609  .00005534  00000-0  36541-3 0  9992,2 50805  53.2159 297.7317 0001876  66.9116 293.2074 15.08851111 57664,6917.846,95.437,541.009,538.414,0.0
50805.0,STARLINK-3333,PAYLOAD,2023-01-11 12:17:02,15.08849231,0.0001861,53.2151,295.9479,74.5184,285.6013,0.0002602,3.856e-05,0.0,0 STARLINK-3333,1 50805U 22001C   23011.51183591  .00003856  00000-0  26020-3 0  9998,2 50805  53.2151 295.9479 0001861  74.5184 285.6013 15.08849231 56453,6917.852,95.437,541.005,538.43,0.0
50805.0,STARLINK-3333,PAYLOAD,2023-01-11 13:52:26,15.0882035,0.000154,53.2149,295.6506,81.0243,279.0924,-0.00033773,-5.656e-05,0.0,0 STARLINK-3333,1 50805U 22001C   23011.57808473 -.00005656  00000-0 -33773-3 0  9992,2 50805  53.2149 295.6506 0001540  81.0243 279.0924 15.08820350 57732,6917.94,95.439,540.871,538.74,0.0
50805.0,STARLINK-3333,PAYLOAD,2023-01-11 20:13:58,15.08839528,0.0001539,53.2131,294.4609,80.7344,279.3822,6.1144e-05,6.85e-06,0.0,0 STARLINK-3333,1 50805U 22001C   23011.84303833  .00000685  00000-0  61144-4 0  9991,2 50805  53.2131 294.4609 0001539  80.7344 279.3822 15.08839528 56501,6917.882,95.438,540.811,538.682,0.0
50805.0,STARLINK-3333,PAYLOAD,2023-01-12 01:00:07,15.08849918,0.0001444,53.2133,293.568,81.7517,278.3639,0.00026144,3.876e-05,0.0,0 STARLINK-3333,1 50805U 22001C   23012.04175432  .00003876  00000-0  26144-3 0  9991,2 50805  53.2133 293.5680 0001444  81.7517 278.3639 15.08849918 57803,6917.85,95.437,540.714,538.716,0.0
50805.0,STARLINK-3333,PAYLOAD,2023-01-12 18:29:22,15.08836343,0.0001702,53.2147,290.2951,90.2705,269.8483,1.4531e-05,-5.7e-07,0.0,0 STARLINK-3333,1 50805U 22001C   23012.77040059 -.00000057  00000-0  14531-4 0  9994,2 50805  53.2147 290.2951 0001702  90.2705 269.8483 15.08836343 57916,6917.892,95.438,540.934,538.5790000000002,0.0
50805.0,STARLINK-3333,PAYLOAD,2023-01-13 13:34:00,15.08839957,0.0001262,53.2134,286.7285,91.3631,268.7506,0.000386,5.861e-05,0.0,0 STARLINK-3333,1 50805U 22001C   23013.56528333  .00005861  00000-0  38600-3 0  9997,2 50805  53.2134 286.7285 0001262  91.3631 268.7506 15.08839957 56763,6917.880999999999,95.438,540.619,538.872,0.0
50805.0,STARLINK-3333,PAYLOAD,2023-01-13 19:55:33,15.08837801,0.0001258,53.2127,285.5386,91.8828,268.2308,0.00033837,5.101e-05,0.0,0 STARLINK-3333,1 50805U 22001C   23013.83024510  .00005101  00000-0  33837-3 0  9999,2 50805  53.2127 285.5386 0001258  91.8828 268.2308 15.08837801 56808,6917.887,95.438,540.622,538.882,0.0
50805.0,STARLINK-3333,PAYLOAD,2023-01-14 02:17:05,15.08858106,0.0001217999999999,53.2128,284.3484,78.0598,282.053,0.00098342,0.00015406,0.0,0 STARLINK-3333,1 50805U 22001C   23014.09520210  .00015406  00000-0  98342-3 0  9997,2 50805  53.2128 284.3484 0001218  78.0598 282.0530 15.08858106 58110,6917.825,95.436,540.533,538.847,0.0
50805.0,STARLINK-3333,PAYLOAD,2023-01-15 00:32:29,15.08853541,0.0001802,53.2133,280.1858,78.6003,281.5191,0.00056912,8.784e-05,0.0,0 STARLINK-3333,1 50805U 22001C   23015.02256195  .00008784  00000-0  56912-3 0  9997,2 50805  53.2133 280.1858 0001802  78.6003 281.5191 15.08853541 58251,6917.839,95.437,540.951,538.457,0.0
50805.0,STARLINK-3333,PAYLOAD,2023-01-15 10:04:48,15.08847034,0.0001104,53.2129,278.4007,54.0526,306.0568,0.00027349,4.068e-05,0.0,0 STARLINK-3333,1 50805U 22001C   23015.42000101  .00004068  00000-0  27349-3 0  9998,2 50805  53.2129 278.4007 0001104  54.0526 306.0568 15.08847034 58313,6917.859,95.437,540.488,538.96,0.0
50805.0,STARLINK-3333,PAYLOAD,2023-01-15 21:12:29,15.08845765,0.0001414,53.2127,276.3205,68.322,291.7923,0.0001847,2.653e-05,0.0,0 STARLINK-3333,1 50805U 22001C   23015.88368017  .00002653  00000-0  18470-3 0  9994,2 50805  53.2127 276.3205 0001414  68.3220 291.7923 15.08845765 57112,6917.863,95.437,540.706,538.75,0.0
50805.0,STARLINK-3333,PAYLOAD,2023-01-16 09:55:34,15.08850626,0.0001398,53.2138,273.9389,60.1319,299.9812,0.0001976999999999,2.861e-05,0.0,0 STARLINK-3333,1 50805U 22001C   23016.41359498  .00002861  00000-0  19770-3 0  9992,2 50805  53.2138 273.9389 0001398  60.1319 299.9812 15.08850626 57197,6917.848000000001,95.437,540.68,538.746,0.0
50805.0,STARLINK-3333,PAYLOAD,2023-01-16 17:52:31,15.08815115,0.0001517,53.2121,272.4545,63.0993,297.0154,-0.00034194,-5.722e-05,0.0,0 STARLINK-3333,1 50805U 22001C   23016.74481235 -.00005722  00000-0 -34194-3 0  9991,2 50805  53.2121 272.4545 0001517  63.0993 297.0154 15.08815115 58519,6917.956,95.439,540.871,538.7719999999999,0.0
